{
  "type": "FeatureCollection",
  "features": [
    {
      "type": "Feature",
      "properties": {
        "group_index": 0,
        "value": 420.0,
        "center": [
          140.36227932816408,
          37.34897953493411
        ]
      },
      "geometry": {
        "coordinates": [
          [
            [
              140.3212,
              37.394157
            ],
            [
              140.317257,
              37.390212
            ],
            [
              140.316065,
              37.388686
            ],
            [
              140.316067,
              37.388464
            ],
            [
              140.31608,
              37.388423
            ],
            [
              140.317443,
              37.386221
            ],
            [
              140.312802,
              37.378629
            ],
            [
              140.312278,
              37.37803
            ],
            [
              140.312275,
              37.378027
            ],
            [
              140.31164,
              37.377298
            ],
            [
              140.312296,
              37.375507
            ],
            [
              140.312778,
              37.375261
            ],
            [
              140.313968,
              37.367486
            ],
            [
              140.311192,
              37.366276
            ],
            [
              140.311138,
              37.366262
            ],
            [
              140.306587,
              37.365015
            ],
            [
              140.305066,
              37.363086
            ],
            [
              140.305072,
              37.362986
            ],
            [
              140.306265,
              37.361429
            ],
            [
              140.306703,
              37.36139
            ],
            [
              140.308822,
              37.36118
            ],
            [
              140.312737,
              37.359039
            ],
            [
              140.31478,
              37.351173
            ],
            [
              140.311132,
              37.349493
            ],
            [
              140.304745,
              37.347695
            ],
            [
              140.304549,
              37.347653
            ],
            [
              140.303486,
              37.346734
            ],
            [
              140.303405,
              37.346476
            ],
            [
              140.305466,
              37.341423
            ],
            [
              140.305868,
              37.340642
            ],
            [
              140.303661,
              37.333629
            ],
            [
              140.299847,
              37.332928
            ],
            [
              140.298022,
              37.332361
            ],
            [
              140.297738,
              37.328772
            ],
            [
              140.3037,
              37.326895
            ],
            [
              140.304389,
              37.326983
            ],
            [
              140.305978,
              37.328517
            ],
            [
              140.30995,
              37.329324
            ],
            [
              140.314008,
              37.322613
            ],
            [
              140.317477,
              37.321651
            ],
            [
              140.324041,
              37.321837
            ],
            [
              140.326979,
              37.320029
            ],
            [
              140.329546,
              37.316365
            ],
            [
              140.3308,
              37.313526
            ],
            [
              140.333174,
              37.312538
            ],
            [
              140.333547,
              37.312673
            ],
            [
              140.339473,
              37.315257
            ],
            [
              140.345554,
              37.311804
            ],
            [
              140.343704,
              37.30625
            ],
            [
              140.34288,
              37.302746
            ],
            [
              140.343889,
              37.30168
            ],
            [
              140.348883,
              37.294329
            ],
            [
              140.348661,
              37.290402
            ],
            [
              140.348482,
              37.290402
            ],
            [
              140.348672,
              37.290402
            ],
            [
              140.349134,
              37.290402
            ],
            [
              140.349191,
              37.290402
            ],
            [
              140.352214,
              37.290402
            ],
            [
              140.352742,
              37.290402
            ],
            [
              140.354594,
              37.290402
            ],
            [
              140.353304,
              37.290402
            ],
            [
              140.353561,
              37.290402
            ],
            [
              140.355464,
              37.290402
            ],
            [
              140.3555,
              37.290402
            ],
            [
              140.357341,
              37.290402
            ],
            [
              140.360358,
              37.290402
            ],
            [
              140.360931,
              37.290402
            ],
            [
              140.369243,
              37.290402
            ],
            [
              140.370903,
              37.290402
            ],
            [
              140.372887,
              37.290402
            ],
            [
              140.373774,
              37.290402
            ],
            [
              140.37751,
              37.290402
            ],
            [
              140.381919,
              37.290402
            ],
            [
              140.38535,
              37.290402
            ],
            [
              140.385301,
              37.290402
            ],
            [
              140.386016,
              37.291371
            ],
            [
              140.38801,
              37.294839
            ],
            [
              140.389379,
              37.297247
            ],
            [
              140.388811,
              37.299216
            ],
            [
              140.388724,
              37.299288
            ],
            [
              140.388204,
              37.299593
            ],
            [
              140.385687,
              37.301983
            ],
            [
              140.384288,
              37.307948
            ],
            [
              140.383022,
              37.309595
            ],
            [
              140.380702,
              37.31128
            ],
            [
              140.376088,
              37.316033
            ],
            [
              140.377856,
              37.32086
            ],
            [
              140.384391,
              37.323144
            ],
            [
              140.384872,
              37.323033
            ],
            [
              140.389555,
              37.319252
            ],
            [
              140.390056,
              37.318189
            ],
            [
              140.391293,
              37.3183
            ],
            [
              140.392988,
              37.318933
            ],
            [
              140.392926,
              37.320233
            ],
            [
              140.392968,
              37.322533
            ],
            [
              140.396971,
              37.330321
            ],
            [
              140.398286,
              37.33118
            ],
            [
              140.404588,
              37.331782
            ],
            [
              140.407164,
              37.329013
            ],
            [
              140.409826,
              37.328024
            ],
            [
              140.411382,
              37.327132
            ],
            [
              140.411484,
              37.3272
            ],
            [
              140.413377,
              37.328617
            ],
            [
              140.414045,
              37.33601
            ],
            [
              140.4131,
              37.342477
            ],
            [
              140.4109,
              37.343077
            ],
            [
              140.406885,
              37.347897
            ],
            [
              140.409905,
              37.352496
            ],
            [
              140.409809,
              37.356095
            ],
            [
              140.41018,
              37.363624
            ],
            [
              140.411293,
              37.36809
            ],
            [
              140.41147,
              37.368919
            ],
            [
              140.411477,
              37.370509
            ],
            [
              140.411473,
              37.370685
            ],
            [
              140.40968,
              37.372286
            ],
            [
              140.403059,
              37.377149
            ],
            [
              140.400729,
              37.379443
            ],
            [
              140.400527,
              37.386316
            ],
            [
              140.39811,
              37.388974
            ],
            [
              140.392665,
              37.393966
            ],
            [
              140.390669,
              37.3971
            ],
            [
              140.390498,
              37.3971
            ],
            [
              140.388913,
              37.3971
            ],
            [
              140.388334,
              37.3971
            ],
            [
              140.387812,
              37.3971
            ],
            [
              140.384435,
              37.3971
            ],
            [
              140.377067,
              37.3971
            ],
            [
              140.370131,
              37.3971
            ],
            [
              140.3628,
              37.3971
            ],
            [
              140.356106,
              37.3971
            ],
            [
              140.355271,
              37.3971
            ],
            [
              140.354804,
              37.3971
            ],
            [
              140.352175,
              37.3971
            ],
            [
              140.343601,
              37.3971
            ],
            [
              140.342045,
              37.3971
            ],
            [
              140.340915,
              37.3971
            ],
            [
              140.340917,
              37.3971
            ],
            [
              140.340918,
              37.3971
            ],
            [
              140.340921,
              37.3971
            ],
            [
              140.340989,
              37.3971
            ],
            [
              140.341013,
              37.3971
            ],
            [
              140.336286,
              37.3971
            ],
            [
              140.335845,
              37.3971
            ],
            [
              140.334046,
              37.3971
            ],
            [
              140.331467,
              37.3971
            ],
            [
              140.326082,
              37.3971
            ],
            [
              140.324407,
              37.3971
            ],
            [
              140.3212,
              37.394157
            ]
          ]
        ],
        "type": "Polygon"
      }
    }
  ],
  "properties": {
    "facility_name": "poem de riha 安積店",
    "facility_lat": 37.34949,
    "facility_lng": 140.362112,
    "range_sec": 420
  }
}